CCSDS_OMM_VERS = 2.0
CREATION_DATE  = 
ORIGINATOR     = 

OBJECT_NAME    = ENVISAT
OBJECT_ID      = 2002-009A
CENTER_NAME    = EARTH
REF_FRAME      = TEME
TIME_SYSTEM    = UTC
MEAN_ELEMENT_THEORY = SGP/SGP4

EPOCH          = 2025-11-22T21:07:05.807712
MEAN_MOTION    = 14.38988427
ECCENTRICITY   = .0001259
INCLINATION    = 98.3569
RA_OF_ASC_NODE = 278.1271
ARG_OF_PERICENTER = 80.9680
MEAN_ANOMALY   = 340.2358

EPHEMERIS_TYPE = 0
CLASSIFICATION_TYPE = U
NORAD_CAT_ID   = 27386
ELEMENT_SET_NO = 999
REV_AT_EPOCH   = 24381
BSTAR          = .57248E-4
MEAN_MOTION_DOT = .134E-5
MEAN_MOTION_DDOT = 0

CCSDS_OMM_VERS = 2.0
CREATION_DATE  = 
ORIGINATOR     = 

OBJECT_NAME    = IDEFIX & ARIANE 42P R/B
OBJECT_ID      = 2002-021B
CENTER_NAME    = EARTH
REF_FRAME      = TEME
TIME_SYSTEM    = UTC
MEAN_ELEMENT_THEORY = SGP/SGP4

EPOCH          = 2025-11-22T19:04:22.391040
MEAN_MOTION    = 14.30928994
ECCENTRICITY   = .001244
INCLINATION    = 98.5758
RA_OF_ASC_NODE = 261.7476
ARG_OF_PERICENTER = 137.8269
MEAN_ANOMALY   = 222.3873

EPHEMERIS_TYPE = 0
CLASSIFICATION_TYPE = U
NORAD_CAT_ID   = 27422
ELEMENT_SET_NO = 999
REV_AT_EPOCH   = 22873
BSTAR          = .14138E-3
MEAN_MOTION_DOT = .328E-5
MEAN_MOTION_DDOT = 0

CCSDS_OMM_VERS = 2.0
CREATION_DATE  = 
ORIGINATOR     = 

OBJECT_NAME    = AQUA
OBJECT_ID      = 2002-022A
CENTER_NAME    = EARTH
REF_FRAME      = TEME
TIME_SYSTEM    = UTC
MEAN_ELEMENT_THEORY = SGP/SGP4

EPOCH          = 2025-11-22T21:46:46.250400
MEAN_MOTION    = 14.61739651
ECCENTRICITY   = .0000598
INCLINATION    = 98.4009
RA_OF_ASC_NODE = 287.4683
ARG_OF_PERICENTER = 78.5551
MEAN_ANOMALY   = 343.8680

EPHEMERIS_TYPE = 0
CLASSIFICATION_TYPE = U
NORAD_CAT_ID   = 27424
ELEMENT_SET_NO = 999
REV_AT_EPOCH   = 25313
BSTAR          = .23689E-3
MEAN_MOTION_DOT = .1132E-4
MEAN_MOTION_DDOT = 0

CCSDS_OMM_VERS = 2.0
CREATION_DATE  = 
ORIGINATOR     = 

OBJECT_NAME    = CZ-4B R/B
OBJECT_ID      = 2002-024C
CENTER_NAME    = EARTH
REF_FRAME      = TEME
TIME_SYSTEM    = UTC
MEAN_ELEMENT_THEORY = SGP/SGP4

EPOCH          = 2025-11-22T18:40:40.792224
MEAN_MOTION    = 14.14521881
ECCENTRICITY   = .0049539
INCLINATION    = 98.9027
RA_OF_ASC_NODE = 15.6168
ARG_OF_PERICENTER = 327.6315
MEAN_ANOMALY   = 139.7299

EPHEMERIS_TYPE = 0
CLASSIFICATION_TYPE = U
NORAD_CAT_ID   = 27432
ELEMENT_SET_NO = 999
REV_AT_EPOCH   = 21412
BSTAR          = .57748E-4
MEAN_MOTION_DOT = .67E-6
MEAN_MOTION_DDOT = 0

CCSDS_OMM_VERS = 2.0
CREATION_DATE  = 
ORIGINATOR     = 

OBJECT_NAME    = MIDORI II (ADEOS-II)
OBJECT_ID      = 2002-056A
CENTER_NAME    = EARTH
REF_FRAME      = TEME
TIME_SYSTEM    = UTC
MEAN_ELEMENT_THEORY = SGP/SGP4

EPOCH          = 2025-11-22T18:18:25.831008
MEAN_MOTION    = 14.29185935
ECCENTRICITY   = .0000893
INCLINATION    = 98.7606
RA_OF_ASC_NODE = 279.6175
ARG_OF_PERICENTER = 23.0897
MEAN_ANOMALY   = 337.0325

EPHEMERIS_TYPE = 0
CLASSIFICATION_TYPE = U
NORAD_CAT_ID   = 27597
ELEMENT_SET_NO = 999
REV_AT_EPOCH   = 19502
BSTAR          = .1408E-3
MEAN_MOTION_DOT = .312E-5
MEAN_MOTION_DDOT = 0

CCSDS_OMM_VERS = 2.0
CREATION_DATE  = 
ORIGINATOR     = 

OBJECT_NAME    = H-2A R/B
OBJECT_ID      = 2002-056E
CENTER_NAME    = EARTH
REF_FRAME      = TEME
TIME_SYSTEM    = UTC
MEAN_ELEMENT_THEORY = SGP/SGP4

EPOCH          = 2025-11-22T18:58:04.802304
MEAN_MOTION    = 14.33654088
ECCENTRICITY   = .0071321
INCLINATION    = 98.3036
RA_OF_ASC_NODE = 286.3449
ARG_OF_PERICENTER = 119.6362
MEAN_ANOMALY   = 302.9778

EPHEMERIS_TYPE = 0
CLASSIFICATION_TYPE = U
NORAD_CAT_ID   = 27601
ELEMENT_SET_NO = 999
REV_AT_EPOCH   = 19879
BSTAR          = .11751E-3
MEAN_MOTION_DOT = .294E-5
MEAN_MOTION_DDOT = 0

CCSDS_OMM_VERS = 2.0
CREATION_DATE  = 
ORIGINATOR     = 

OBJECT_NAME    = CZ-4B R/B
OBJECT_ID      = 2003-049C
CENTER_NAME    = EARTH
REF_FRAME      = TEME
TIME_SYSTEM    = UTC
MEAN_ELEMENT_THEORY = SGP/SGP4

EPOCH          = 2025-11-22T13:58:41.195136
MEAN_MOTION    = 14.54882614
ECCENTRICITY   = .0047851
INCLINATION    = 98.6773
RA_OF_ASC_NODE = 312.3866
ARG_OF_PERICENTER = 197.2959
MEAN_ANOMALY   = 162.6609

EPHEMERIS_TYPE = 0
CLASSIFICATION_TYPE = U
NORAD_CAT_ID   = 28059
ELEMENT_SET_NO = 999
REV_AT_EPOCH   = 17102
BSTAR          = .10355E-3
MEAN_MOTION_DOT = .4E-5
MEAN_MOTION_DDOT = 0

CCSDS_OMM_VERS = 2.0
CREATION_DATE  = 
ORIGINATOR     = 

OBJECT_NAME    = CZ-2C R/B
OBJECT_ID      = 2004-012C
CENTER_NAME    = EARTH
REF_FRAME      = TEME
TIME_SYSTEM    = UTC
MEAN_ELEMENT_THEORY = SGP/SGP4

EPOCH          = 2025-11-22T17:17:50.418816
MEAN_MOTION    = 15.53706856
ECCENTRICITY   = .0018014
INCLINATION    = 97.7449
RA_OF_ASC_NODE = 17.7152
ARG_OF_PERICENTER = 347.7014
MEAN_ANOMALY   = 12.3796

EPHEMERIS_TYPE = 0
CLASSIFICATION_TYPE = U
NORAD_CAT_ID   = 28222
ELEMENT_SET_NO = 999
REV_AT_EPOCH   = 18761
BSTAR          = .46701E-3
MEAN_MOTION_DOT = .3004E-3
MEAN_MOTION_DDOT = 0

CCSDS_OMM_VERS = 2.0
CREATION_DATE  = 
ORIGINATOR     = 

OBJECT_NAME    = SL-16 R/B
OBJECT_ID      = 2004-021B
CENTER_NAME    = EARTH
REF_FRAME      = TEME
TIME_SYSTEM    = UTC
MEAN_ELEMENT_THEORY = SGP/SGP4

EPOCH          = 2025-11-22T18:01:31.890720
MEAN_MOTION    = 14.14580190
ECCENTRICITY   = .0006211
INCLINATION    = 71.0004
RA_OF_ASC_NODE = 96.9096
ARG_OF_PERICENTER = 221.6655
MEAN_ANOMALY   = 138.3995

EPHEMERIS_TYPE = 0
CLASSIFICATION_TYPE = U
NORAD_CAT_ID   = 28353
ELEMENT_SET_NO = 999
REV_AT_EPOCH   = 10771
BSTAR          = .13591E-3
MEAN_MOTION_DOT = .213E-5
MEAN_MOTION_DDOT = 0

CCSDS_OMM_VERS = 2.0
CREATION_DATE  = 
ORIGINATOR     = 

OBJECT_NAME    = CZ-4B R/B
OBJECT_ID      = 2004-035C
CENTER_NAME    = EARTH
REF_FRAME      = TEME
TIME_SYSTEM    = UTC
MEAN_ELEMENT_THEORY = SGP/SGP4

EPOCH          = 2025-11-22T15:24:29.371104
MEAN_MOTION    = 15.26920109
ECCENTRICITY   = .0033351
INCLINATION    = 97.3627
RA_OF_ASC_NODE = 357.2584
ARG_OF_PERICENTER = 351.2349
MEAN_ANOMALY   = 8.8303

EPHEMERIS_TYPE = 0
CLASSIFICATION_TYPE = U
NORAD_CAT_ID   = 28415
ELEMENT_SET_NO = 999
REV_AT_EPOCH   = 16356
BSTAR          = .32495E-3
MEAN_MOTION_DOT = .8657E-4
MEAN_MOTION_DDOT = 0

CCSDS_OMM_VERS = 2.0
CREATION_DATE  = 
ORIGINATOR     = 

OBJECT_NAME    = CZ-2C R/B
OBJECT_ID      = 2004-046B
CENTER_NAME    = EARTH
REF_FRAME      = TEME
TIME_SYSTEM    = UTC
MEAN_ELEMENT_THEORY = SGP/SGP4

EPOCH          = 2025-11-22T18:20:31.198272
MEAN_MOTION    = 14.26927639
ECCENTRICITY   = .0140672
INCLINATION    = 98.1971
RA_OF_ASC_NODE = 243.3858
ARG_OF_PERICENTER = 110.8852
MEAN_ANOMALY   = 250.7455

EPHEMERIS_TYPE = 0
CLASSIFICATION_TYPE = U
NORAD_CAT_ID   = 28480
ELEMENT_SET_NO = 999
REV_AT_EPOCH   = 9325
BSTAR          = .88291E-4
MEAN_MOTION_DOT = .198E-5
MEAN_MOTION_DDOT = 0

CCSDS_OMM_VERS = 2.0
CREATION_DATE  = 
ORIGINATOR     = 

OBJECT_NAME    = ARIANE 5 R/B
OBJECT_ID      = 2004-049H
CENTER_NAME    = EARTH
REF_FRAME      = TEME
TIME_SYSTEM    = UTC
MEAN_ELEMENT_THEORY = SGP/SGP4

EPOCH          = 2025-11-22T10:30:51.368256
MEAN_MOTION    = 14.84948287
ECCENTRICITY   = .0084211
INCLINATION    = 98.2520
RA_OF_ASC_NODE = 125.9936
ARG_OF_PERICENTER = 339.4811
MEAN_ANOMALY   = 20.3027

EPHEMERIS_TYPE = 0
CLASSIFICATION_TYPE = U
NORAD_CAT_ID   = 28499
ELEMENT_SET_NO = 999
REV_AT_EPOCH   = 12987
BSTAR          = .10868E-3
MEAN_MOTION_DOT = .921E-5
MEAN_MOTION_DDOT = 0

