ENVISAT                 
1 27386U 02009A   25326.87992833  .00000134  00000+0  57248-4 0  9991
2 27386  98.3569 278.1271 0001259  80.9680 340.2358 14.38988427243811
IDEFIX & ARIANE 42P R/B 
1 27422U 02021B   25326.79470360  .00000328  00000+0  14138-3 0  9998
2 27422  98.5758 261.7476 0012440 137.8269 222.3873 14.30928994228739
AQUA                    
1 27424U 02022A   25326.90747975  .00001132  00000+0  23689-3 0  9998
2 27424  98.4009 287.4683 0000598  78.5551 343.8680 14.61739651253131
CZ-4B R/B               
1 27432U 02024C   25326.77824991  .00000067  00000+0  57748-4 0  9998
2 27432  98.9027  15.6168 0049539 327.6315 139.7299 14.14521881214124
MIDORI II (ADEOS-II)    
1 27597U 02056A   25326.76279897  .00000312  00000+0  14080-3 0  9997
2 27597  98.7606 279.6175 0000893  23.0897 337.0325 14.29185935195021
H-2A R/B                
1 27601U 02056E   25326.79033336  .00000294  00000+0  11751-3 0  9993
2 27601  98.3036 286.3449 0071321 119.6362 302.9778 14.33654088198797
CZ-4B R/B               
1 28059U 03049C   25326.58242124  .00000400  00000+0  10355-3 0  9996
2 28059  98.6773 312.3866 0047851 197.2959 162.6609 14.54882614171026
CZ-2C R/B               
1 28222U 04012C   25326.72072244  .00030040  00000+0  46701-3 0  9996
2 28222  97.7449  17.7152 0018014 347.7014  12.3796 15.53706856187618
SL-16 R/B               
1 28353U 04021B   25326.75106355  .00000213  00000+0  13591-3 0  9995
2 28353  71.0004  96.9096 0006211 221.6655 138.3995 14.14580190107718
CZ-4B R/B               
1 28415U 04035C   25326.64200661  .00008657  00000+0  32495-3 0  9996
2 28415  97.3627 357.2584 0033351 351.2349   8.8303 15.26920109163560
CZ-2C R/B               
1 28480U 04046B   25326.76424998  .00000198  00000+0  88291-4 0  9992
2 28480  98.1971 243.3858 0140672 110.8852 250.7455 14.26927639 93253
ARIANE 5 R/B            
1 28499U 04049H   25326.43809454  .00000921  00000+0  10868-3 0  9991
2 28499  98.2520 125.9936 0084211 339.4811  20.3027 14.84948287129876
